{
  "type": "FeatureCollection",
  "features": [
    {
      "type": "Feature",
      "properties": {
        "norad_id": 31622,
        "name": "FENGYUN 1C DEB",
        "group": "fengyun-1c-debris",
        "lat": -58.86719947320063,
        "lon": -115.97386686696136,
        "alt_km": 778.9261286685205,
        "timestamp": "2025-12-10T04:57:29.901644+00:00",
        "meta_object_name": "FENGYUN 1C DEB",
        "meta_object_id": "1999-025CAC",
        "meta_epoch": "2025-12-07T05:47:33.930816",
        "meta_mean_motion": 14.3708847,
        "meta_eccentricity": 0.00149479,
        "meta_inclination": 98.817,
        "meta_ra_of_asc_node": 75.879,
        "meta_arg_of_pericenter": 0.1509,
        "meta_mean_anomaly": 27.7492,
        "meta_ephemeris_type": 0,
        "meta_classification_type": "U",
        "meta_norad_cat_id": 31622,
        "meta_element_set_no": 999,
        "meta_rev_at_epoch": 95693,
        "meta_bstar": 0.0031264512,
        "meta_mean_motion_dot": 9.261e-05,
        "meta_mean_motion_ddot": 0,
        "tle_line1": "1 31622U 99025CAC 25341.24136494  .00009261  00000+0  31265-2 0  9993",
        "tle_line2": "2 31622  98.8170  75.8790 0014947   0.1509  27.7492 14.37088470956930"
      },
      "geometry": {
        "type": "Point",
        "coordinates": [
          -115.97386686696136,
          -58.86719947320063
        ]
      }
    },
    {
      "type": "Feature",
      "properties": {
        "norad_id": 31623,
        "name": "FENGYUN 1C DEB",
        "group": "fengyun-1c-debris",
        "lat": -49.886605325109734,
        "lon": -154.58024112066119,
        "alt_km": 895.8098887486831,
        "timestamp": "2025-12-10T04:57:29.901654+00:00",
        "meta_object_name": "FENGYUN 1C DEB",
        "meta_object_id": "1999-025CAD",
        "meta_epoch": "2025-12-02T20:02:22.350624",
        "meta_mean_motion": 13.82580933,
        "meta_eccentricity": 0.01951152,
        "meta_inclination": 97.6304,
        "meta_ra_of_asc_node": 190.283,
        "meta_arg_of_pericenter": 33.7651,
        "meta_mean_anomaly": 327.5758,
        "meta_ephemeris_type": 0,
        "meta_classification_type": "U",
        "meta_norad_cat_id": 31623,
        "meta_element_set_no": 999,
        "meta_rev_at_epoch": 57783,
        "meta_bstar": 0.00047153491,
        "meta_mean_motion_dot": 5.61e-06,
        "meta_mean_motion_ddot": 0,
        "tle_line1": "1 31623U 99025CAD 25336.83498091  .00000561  00000+0  47153-3 0  9995",
        "tle_line2": "2 31623  97.6304 190.2830 0195115  33.7651 327.5758 13.82580933577835"
      },
      "geometry": {
        "type": "Point",
        "coordinates": [
          -154.58024112066119,
          -49.886605325109734
        ]
      }
    },
    {
      "type": "Feature",
      "properties": {
        "norad_id": 31625,
        "name": "FENGYUN 1C DEB",
        "group": "fengyun-1c-debris",
        "lat": 54.18225510857233,
        "lon": 57.68985576842454,
        "alt_km": 612.4060432125643,
        "timestamp": "2025-12-10T04:57:29.901664+00:00",
        "meta_object_name": "FENGYUN 1C DEB",
        "meta_object_id": "1999-025CAF",
        "meta_epoch": "2025-12-09T12:16:17.932224",
        "meta_mean_motion": 14.55391454,
        "meta_eccentricity": 0.01494953,
        "meta_inclination": 98.8063,
        "meta_ra_of_asc_node": 69.361,
        "meta_arg_of_pericenter": 25.5722,
        "meta_mean_anomaly": 348.0106,
        "meta_ephemeris_type": 0,
        "meta_classification_type": "U",
        "meta_norad_cat_id": 31625,
        "meta_element_set_no": 999,
        "meta_rev_at_epoch": 98346,
        "meta_bstar": 0.00025680837,
        "meta_mean_motion_dot": 1.237e-05,
        "meta_mean_motion_ddot": 0,
        "tle_line1": "1 31625U 99025CAF 25343.51131866  .00001237  00000+0  25681-3 0  9997",
        "tle_line2": "2 31625  98.8063  69.3610 0149495  25.5722 348.0106 14.55391454983466"
      },
      "geometry": {
        "type": "Point",
        "coordinates": [
          57.68985576842454,
          54.18225510857233
        ]
      }
    },
    {
      "type": "Feature",
      "properties": {
        "norad_id": 31627,
        "name": "FENGYUN 1C DEB",
        "group": "fengyun-1c-debris",
        "lat": 70.605001646617,
        "lon": -122.65464360445897,
        "alt_km": 744.4111953539687,
        "timestamp": "2025-12-10T04:57:29.901674+00:00",
        "meta_object_name": "FENGYUN 1C DEB",
        "meta_object_id": "1999-025CAH",
        "meta_epoch": "2025-11-26T09:13:22.975680",
        "meta_mean_motion": 14.35408996,
        "meta_eccentricity": 0.00515931,
        "meta_inclination": 98.5313,
        "meta_ra_of_asc_node": 18.4415,
        "meta_arg_of_pericenter": 201.9005,
        "meta_mean_anomaly": 157.9975,
        "meta_ephemeris_type": 0,
        "meta_classification_type": "U",
        "meta_norad_cat_id": 31627,
        "meta_element_set_no": 999,
        "meta_rev_at_epoch": 64532,
        "meta_bstar": 0.0013473839,
        "meta_mean_motion_dot": 3.885e-05,
        "meta_mean_motion_ddot": 0,
        "tle_line1": "1 31627U 99025CAH 25330.38429370  .00003885  00000+0  13474-2 0  9997",
        "tle_line2": "2 31627  98.5313  18.4415 0051593 201.9005 157.9975 14.35408996645325"
      },
      "geometry": {
        "type": "Point",
        "coordinates": [
          -122.65464360445897,
          70.605001646617
        ]
      }
    },
    {
      "type": "Feature",
      "properties": {
        "norad_id": 31628,
        "name": "FENGYUN 1C DEB",
        "group": "fengyun-1c-debris",
        "lat": 26.914414866913148,
        "lon": 24.598434178150136,
        "alt_km": 902.3815164953894,
        "timestamp": "2025-12-10T04:57:29.901684+00:00",
        "meta_object_name": "FENGYUN 1C DEB",
        "meta_object_id": "1999-025CAJ",
        "meta_epoch": "2025-12-08T21:02:40.900128",
        "meta_mean_motion": 13.86802576,
        "meta_eccentricity": 0.0169315,
        "meta_inclination": 102.2693,
        "meta_ra_of_asc_node": 196.5172,
        "meta_arg_of_pericenter": 229.4332,
        "meta_mean_anomaly": 129.1969,
        "meta_ephemeris_type": 0,
        "meta_classification_type": "U",
        "meta_norad_cat_id": 31628,
        "meta_element_set_no": 999,
        "meta_rev_at_epoch": 93246,
        "meta_bstar": 0.0029107,
        "meta_mean_motion_dot": 3.734e-05,
        "meta_mean_motion_ddot": 0,
        "tle_line1": "1 31628U 99025CAJ 25342.87686227  .00003734  00000+0  29107-2 0  9994",
        "tle_line2": "2 31628 102.2693 196.5172 0169315 229.4332 129.1969 13.86802576932463"
      },
      "geometry": {
        "type": "Point",
        "coordinates": [
          24.598434178150136,
          26.914414866913148
        ]
      }
    },
    {
      "type": "Feature",
      "properties": {
        "norad_id": 31629,
        "name": "FENGYUN 1C DEB",
        "group": "fengyun-1c-debris",
        "lat": 27.007968198437926,
        "lon": -144.46859973398242,
        "alt_km": 877.4925214332998,
        "timestamp": "2025-12-10T04:57:29.901695+00:00",
        "meta_object_name": "FENGYUN 1C DEB",
        "meta_object_id": "1999-025CAK",
        "meta_epoch": "2025-12-09T09:34:38.402112",
        "meta_mean_motion": 14.14576553,
        "meta_eccentricity": 0.01038704,
        "meta_inclination": 102.1327,
        "meta_ra_of_asc_node": 28.1431,
        "meta_arg_of_pericenter": 35.9013,
        "meta_mean_anomaly": 324.907,
        "meta_ephemeris_type": 0,
        "meta_classification_type": "U",
        "meta_norad_cat_id": 31629,
        "meta_element_set_no": 999,
        "meta_rev_at_epoch": 94399,
        "meta_bstar": 0.0030640345,
        "meta_mean_motion_dot": 6.133e-05,
        "meta_mean_motion_ddot": 0,
        "tle_line1": "1 31629U 99025CAK 25343.39905558  .00006133  00000+0  30640-2 0  9994",
        "tle_line2": "2 31629 102.1327  28.1431 0103870  35.9013 324.9070 14.14576553943998"
      },
      "geometry": {
        "type": "Point",
        "coordinates": [
          -144.46859973398242,
          27.007968198437926
        ]
      }
    },
    {
      "type": "Feature",
      "properties": {
        "norad_id": 31630,
        "name": "FENGYUN 1C DEB",
        "group": "fengyun-1c-debris",
        "lat": 6.657146373058457,
        "lon": 150.6577136783599,
        "alt_km": 435.2073215403898,
        "timestamp": "2025-12-10T04:57:29.901706+00:00",
        "meta_object_name": "FENGYUN 1C DEB",
        "meta_object_id": "1999-025CAL",
        "meta_epoch": "2025-12-09T17:46:06.505248",
        "meta_mean_motion": 15.06129912,
        "meta_eccentricity": 0.0165981,
        "meta_inclination": 98.0905,
        "meta_ra_of_asc_node": 151.1196,
        "meta_arg_of_pericenter": 6.7273,
        "meta_mean_anomaly": 353.6126,
        "meta_ephemeris_type": 0,
        "meta_classification_type": "U",
        "meta_norad_cat_id": 31630,
        "meta_element_set_no": 999,
        "meta_rev_at_epoch": 98545,
        "meta_bstar": 0.0011633,
        "meta_mean_motion_dot": 0.00023267,
        "meta_mean_motion_ddot": 0,
        "tle_line1": "1 31630U 99025CAL 25343.74035307  .00023267  00000+0  11633-2 0  9999",
        "tle_line2": "2 31630  98.0905 151.1196 0165981   6.7273 353.6126 15.06129912985458"
      },
      "geometry": {
        "type": "Point",
        "coordinates": [
          150.6577136783599,
          6.657146373058457
        ]
      }
    }
  ]
}